{"type": "FeatureCollection", "features": [ {"type": "Feature", "properties": {"norad_id": 34031, "name": "COSMOS 2251 DEB", "group": "cosmos-2251-debris", "lat": 9.095327712567205, "lon": -55.925395465398225, "alt_km": 691.4841171956232, "timestamp": "2025-12-17T10:52:54.745845+00:00", "meta": {"OBJECT_NAME": "COSMOS 2251 DEB", "OBJECT_ID": "1993-036HS", "EPOCH": "2025-12-16T11:22:05.968416", "MEAN_MOTION": 14.5973151, "ECCENTRICITY": 0.00230067, "INCLINATION": 74.0124, "RA_OF_ASC_NODE": 128.5759, "ARG_OF_PERICENTER": 248.7685, "MEAN_ANOMALY": 175.486, "EPHEMERIS_TYPE": 0, "CLASSIFICATION_TYPE": "U", "NORAD_CAT_ID": 34031, "ELEMENT_SET_NO": 999, "REV_AT_EPOCH": 88620, "BSTAR": 0.00094369544, "MEAN_MOTION_DOT": 4.491e-05, "MEAN_MOTION_DDOT": 0}, "tle": {"line1": "1 34031U 93036HS  25350.47368019  .00004491  00000+0  94370-3 0  9998", "line2": "2 34031  74.0124 128.5759 0023006 248.7685 175.4860 14.59731510886200"}}, "geometry": {"type": "Point", "coordinates": [-55.925395465398225, 9.095327712567205]}}, {"type": "Feature", "properties": {"norad_id": 34035, "name": "COSMOS 2251 DEB", "group": "cosmos-2251-debris", "lat": -21.306489488100116, "lon": 166.67345969922943, "alt_km": 747.9516426439523, "timestamp": "2025-12-17T10:52:54.745855+00:00", "meta": {"OBJECT_NAME": "COSMOS 2251 DEB", "OBJECT_ID": "1993-036HW", "EPOCH": "2025-12-16T07:47:07.079136", "MEAN_MOTION": 14.51988505, "ECCENTRICITY": 0.00449549, "INCLINATION": 74.0654, "RA_OF_ASC_NODE": 342.3982, "ARG_OF_PERICENTER": 343.1436, "MEAN_ANOMALY": 80.0933, "EPHEMERIS_TYPE": 0, "CLASSIFICATION_TYPE": "U", "NORAD_CAT_ID": 34035, "ELEMENT_SET_NO": 999, "REV_AT_EPOCH": 88018, "BSTAR": 0.0012293043, "MEAN_MOTION_DOT": 5.006e-05, "MEAN_MOTION_DDOT": 0}, "tle": {"line1": "1 34035U 93036HW  25350.32438749  .00005006  00000+0  12293-2 0  9990", "line2": "2 34035  74.0654 342.3982 0044954 343.1436  80.0933 14.51988505880188"}}, "geometry": {"type": "Point", "coordinates": [166.67345969922943, -21.306489488100116]}}, {"type": "Feature", "properties": {"norad_id": 34036, "name": "COSMOS 2251 DEB", "group": "cosmos-2251-debris", "lat": 60.99774966027847, "lon": -71.37678494711665, "alt_km": 570.5758395483263, "timestamp": "2025-12-17T10:52:54.745865+00:00", "meta": {"OBJECT_NAME": "COSMOS 2251 DEB", "OBJECT_ID": "1993-036HX", "EPOCH": "2025-12-15T11:48:16.297920", "MEAN_MOTION": 14.95207408, "ECCENTRICITY": 0.00117703, "INCLINATION": 74.0192, "RA_OF_ASC_NODE": 143.7108, "ARG_OF_PERICENTER": 175.2274, "MEAN_ANOMALY": 184.9024, "EPHEMERIS_TYPE": 0, "CLASSIFICATION_TYPE": "U", "NORAD_CAT_ID": 34036, "ELEMENT_SET_NO": 999, "REV_AT_EPOCH": 88611, "BSTAR": 0.0024574884, "MEAN_MOTION_DOT": 0.00027124, "MEAN_MOTION_DDOT": 0}, "tle": {"line1": "1 34036U 93036HX  25349.49185530  .00027124  00000+0  24575-2 0  9995", "line2": "2 34036  74.0192 143.7108 0011770 175.2274 184.9024 14.95207408886111"}}, "geometry": {"type": "Point", "coordinates": [-71.37678494711665, 60.99774966027847]}}, {"type": "Feature", "properties": {"norad_id": 34037, "name": "COSMOS 2251 DEB", "group": "cosmos-2251-debris", "lat": -46.57002885103641, "lon": -120.6016083199191, "alt_km": 810.3030741169705, "timestamp": "2025-12-17T10:52:54.745875+00:00", "meta": {"OBJECT_NAME": "COSMOS 2251 DEB", "OBJECT_ID": "1993-036HY", "EPOCH": "2025-12-16T13:44:25.067904", "MEAN_MOTION": 14.34675211, "ECCENTRICITY": 0.00518949, "INCLINATION": 74.0515, "RA_OF_ASC_NODE": 43.4277, "ARG_OF_PERICENTER": 92.2689, "MEAN_ANOMALY": 268.4407, "EPHEMERIS_TYPE": 0, "CLASSIFICATION_TYPE": "U", "NORAD_CAT_ID": 34037, "ELEMENT_SET_NO": 999, "REV_AT_EPOCH": 87772, "BSTAR": 0.00039600013, "MEAN_MOTION_DOT": 1.112e-05, "MEAN_MOTION_DDOT": 0}, "tle": {"line1": "1 34037U 93036HY  25350.57251236  .00001112  00000+0  39600-3 0  9999", "line2": "2 34037  74.0515  43.4277 0051894  92.2689 268.4407 14.34675211877727"}}, "geometry": {"type": "Point", "coordinates": [-120.6016083199191, -46.57002885103641]}}, {"type": "Feature", "properties": {"norad_id": 34040, "name": "COSMOS 2251 DEB", "group": "cosmos-2251-debris", "lat": 70.15365916143034, "lon": 110.94256413985259, "alt_km": 894.7659073924251, "timestamp": "2025-12-17T10:52:54.745885+00:00", "meta": {"OBJECT_NAME": "COSMOS 2251 DEB", "OBJECT_ID": "1993-036JB", "EPOCH": "2025-12-16T13:28:05.115648", "MEAN_MOTION": 13.68379952, "ECCENTRICITY": 0.03431488, "INCLINATION": 73.9559, "RA_OF_ASC_NODE": 59.5488, "ARG_OF_PERICENTER": 12.1387, "MEAN_ANOMALY": 348.7735, "EPHEMERIS_TYPE": 0, "CLASSIFICATION_TYPE": "U", "NORAD_CAT_ID": 34040, "ELEMENT_SET_NO": 999, "REV_AT_EPOCH": 83652, "BSTAR": 0.00049113858, "MEAN_MOTION_DOT": 6.11e-06, "MEAN_MOTION_DDOT": 0}, "tle": {"line1": "1 34040U 93036JB  25350.56117032  .00000611  00000+0  49114-3 0  9991", "line2": "2 34040  73.9559  59.5488 0343148  12.1387 348.7735 13.68379952836529"}}, "geometry": {"type": "Point", "coordinates": [110.94256413985259, 70.15365916143034]}}, {"type": "Feature", "properties": {"norad_id": 34045, "name": "COSMOS 2251 DEB", "group": "cosmos-2251-debris", "lat": -72.50468603077391, "lon": -172.57220783147716, "alt_km": 794.7669218750298, "timestamp": "2025-12-17T10:52:54.745896+00:00", "meta": {"OBJECT_NAME": "COSMOS 2251 DEB", "OBJECT_ID": "1993-036JG", "EPOCH": "2025-12-16T23:56:18.932640", "MEAN_MOTION": 14.340713, "ECCENTRICITY": 0.00258373, "INCLINATION": 74.0393, "RA_OF_ASC_NODE": 303.0408, "ARG_OF_PERICENTER": 25.311, "MEAN_ANOMALY": 44.6151, "EPHEMERIS_TYPE": 0, "CLASSIFICATION_TYPE": "U", "NORAD_CAT_ID": 34045, "ELEMENT_SET_NO": 999, "REV_AT_EPOCH": 88094, "BSTAR": 8.688128e-05, "MEAN_MOTION_DOT": 2.18e-06, "MEAN_MOTION_DDOT": 0}, "tle": {"line1": "1 34045U 93036JG  25350.99744135  .00000218  00000+0  86881-4 0  9999", "line2": "2 34045  74.0393 303.0408 0025837  25.3110  44.6151 14.34071300880942"}}, "geometry": {"type": "Point", "coordinates": [-172.57220783147716, -72.50468603077391]}}, {"type": "Feature", "properties": {"norad_id": 34046, "name": "COSMOS 2251 DEB", "group": "cosmos-2251-debris", "lat": 69.66122325209632, "lon": 131.13388391282322, "alt_km": 679.8447829149845, "timestamp": "2025-12-17T10:52:54.745906+00:00", "meta": {"OBJECT_NAME": "COSMOS 2251 DEB", "OBJECT_ID": "1993-036JH", "EPOCH": "2025-12-16T11:51:57.702240", "MEAN_MOTION": 14.46503775, "ECCENTRICITY": 0.007444, "INCLINATION": 74.0395, "RA_OF_ASC_NODE": 3.4625, "ARG_OF_PERICENTER": 85.7385, "MEAN_ANOMALY": 64.8662, "EPHEMERIS_TYPE": 0, "CLASSIFICATION_TYPE": "U", "NORAD_CAT_ID": 34046, "ELEMENT_SET_NO": 999, "REV_AT_EPOCH": 87880, "BSTAR": 0.00080678373, "MEAN_MOTION_DOT": 2.98e-05, "MEAN_MOTION_DDOT": 0}, "tle": {"line1": "1 34046U 93036JH  25350.49441785  .00002980  00000+0  80678-3 0  9995", "line2": "2 34046  74.0395   3.4625 0074440  85.7385  64.8662 14.46503775878807"}}, "geometry": {"type": "Point", "coordinates": [131.13388391282322, 69.66122325209632]}}, {"type": "Feature", "properties": {"norad_id": 34050, "name": "COSMOS 2251 DEB", "group": "cosmos-2251-debris", "lat": -26.120158576799547, "lon": -169.99277169233994, "alt_km": 1034.317414278472, "timestamp": "2025-12-17T10:52:54.745917+00:00", "meta": {"OBJECT_NAME": "COSMOS 2251 DEB", "OBJECT_ID": "1993-036JM", "EPOCH": "2025-12-16T19:16:52.757760", "MEAN_MOTION": 13.96189897, "ECCENTRICITY": 0.02146005, "INCLINATION": 74.0883, "RA_OF_ASC_NODE": 3.0815, "ARG_OF_PERICENTER": 66.354, "MEAN_ANOMALY": 113.3266, "EPHEMERIS_TYPE": 0, "CLASSIFICATION_TYPE": "U", "NORAD_CAT_ID": 34050, "ELEMENT_SET_NO": 999, "REV_AT_EPOCH": 85488, "BSTAR": 0.00058102541, "MEAN_MOTION_DOT": 9.47e-06, "MEAN_MOTION_DDOT": 0}, "tle": {"line1": "1 34050U 93036JM  25350.80338840  .00000947  00000+0  58103-3 0  9991", "line2": "2 34050  74.0883   3.0815 0214600  66.3540 113.3266 13.96189897854884"}}, "geometry": {"type": "Point", "coordinates": [-169.99277169233994, -26.120158576799547]}}, {"type": "Feature", "properties": {"norad_id": 34053, "name": "COSMOS 2251 DEB", "group": "cosmos-2251-debris", "lat": 67.34120226720795, "lon": 10.598928269716966, "alt_km": 1020.8661932510413, "timestamp": "2025-12-17T10:52:54.745927+00:00", "meta": {"OBJECT_NAME": "COSMOS 2251 DEB", "OBJECT_ID": "1993-036JQ", "EPOCH": "2025-12-16T18:22:31.272672", "MEAN_MOTION": 13.49167627, "ECCENTRICITY": 0.04224557, "INCLINATION": 73.8436, "RA_OF_ASC_NODE": 235.684, "ARG_OF_PERICENTER": 23.5689, "MEAN_ANOMALY": 338.4157, "EPHEMERIS_TYPE": 0, "CLASSIFICATION_TYPE": "U", "NORAD_CAT_ID": 34053, "ELEMENT_SET_NO": 999, "REV_AT_EPOCH": 82738, "BSTAR": 0.00064150876, "MEAN_MOTION_DOT": 6.78e-06, "MEAN_MOTION_DDOT": 0}, "tle": {"line1": "1 34053U 93036JQ  25350.76563973  .00000678  00000+0  64151-3 0  9997", "line2": "2 34053  73.8436 235.6840 0422455  23.5689 338.4157 13.49167627827386"}}, "geometry": {"type": "Point", "coordinates": [10.598928269716966, 67.34120226720795]}}, {"type": "Feature", "properties": {"norad_id": 34056, "name": "COSMOS 2251 DEB", "group": "cosmos-2251-debris", "lat": 41.178499447372936, "lon": 82.42751824243994, "alt_km": 790.0985025899063, "timestamp": "2025-12-17T10:52:54.745937+00:00", "meta": {"OBJECT_NAME": "COSMOS 2251 DEB", "OBJECT_ID": "1993-036JT", "EPOCH": "2025-12-16T14:57:05.451264", "MEAN_MOTION": 14.20572187, "ECCENTRICITY": 0.01239005, "INCLINATION": 74.0598, "RA_OF_ASC_NODE": 69.4338, "ARG_OF_PERICENTER": 116.2419, "MEAN_ANOMALY": 3.2004, "EPHEMERIS_TYPE": 0, "CLASSIFICATION_TYPE": "U", "NORAD_CAT_ID": 34056, "ELEMENT_SET_NO": 999, "REV_AT_EPOCH": 86466, "BSTAR": 0.00058329476, "MEAN_MOTION_DOT": 1.331e-05, "MEAN_MOTION_DDOT": 0}, "tle": {"line1": "1 34056U 93036JT  25350.62297976  .00001331  00000+0  58329-3 0  9999", "line2": "2 34056  74.0598  69.4338 0123900 116.2419   3.2004 14.20572187864661"}}, "geometry": {"type": "Point", "coordinates": [82.42751824243994, 41.178499447372936]}}]}